NUSAT-1 (FRESCO)        
1 41557U 16033B   22199.54795135  .00012816  00000+0  37522-3 0  9996
2 41557  97.3904 297.3125 0008995 263.9622 224.7350 15.35330760342157
BEESAT-4                
1 41619U 16040W   22198.88995062  .00014901  00000+0  48578-3 0  9990
2 41619  97.2141 248.7166 0009320  19.9279 340.2325 15.31862671325382
CAS-2T & KS-1Q          
1 41847U 16066G   22199.15532946  .00001274  00000+0  19860-3 0  9991
2 41847  98.5494 263.7910 0364756 117.9955 245.8642 14.38644165298766
NAYIF-1 (EO-88)         
1 42017U 17008BX  22199.07200981  .00017249  00000+0  50165-3 0  9992
2 42017  97.2666 264.7556 0006478 128.1180 232.0649 15.35487280301770
ZHUHAI-1 02 (CAS-4B)    
1 42759U 17034B   22199.37011656  .00003091  00000+0  18920-3 0  9999
2 42759  43.0155 162.2638 0007724 125.6624  10.5433 15.12083244281031
ZHUHAI-1 01 (CAS-4A)    
1 42761U 17034D   22199.40531282  .00003132  00000+0  19106-3 0  9991
2 42761  43.0162 160.8375 0008048 130.2032  12.6532 15.12169849281049
MAX VALIER SAT          
1 42778U 17036P   22199.38045974  .00008199  00000+0  30752-3 0  9994
2 42778  97.2026 239.4235 0009903 206.2104 153.8636 15.27435473281622
RADFXSAT (FOX-1B)       
1 43017U 17073E   22198.69871013  .00004554  00000+0  34078-3 0  9992
2 43017  97.6714  91.6523 0249707  88.8010 274.1797 14.81570975251597
FOX-1D (AO-92)          
1 43137U 18004AC  22198.77623116  .00009762  00000+0  33970-3 0  9994
2 43137  97.3673 273.6676 0006042 248.1233 111.9365 15.29885191250975
DIWATA-2B               
1 43678U 18084H   22199.29557479  .00000831  00000+0  87275-4 0  9994
2 43678  97.9751 332.9295 0009895 176.0235 184.1057 14.92216601202457
ES'HAIL 2               
1 43700U 18090A   22198.87280597  .00000133  00000+0  00000+0 0  9995
2 43700   0.0184  54.6556 0001489  94.0260 126.9395  1.00271857 13339
FOX-1CLIFF (AO-95)      
1 43770U 18099N   22198.87987549  .00002665  00000+0  23871-3 0  9999
2 43770  97.6197 264.4403 0014477 166.5713 193.5897 14.96567277197561
ITASAT 1                
1 43786U 18099AE  22198.73665143  .00003021  00000+0  26900-3 0  9997
2 43786  97.6219 265.2352 0015573 160.4162 199.7661 14.96692002197588
JY1SAT (JO-97)          
1 43803U 18099AX  22199.41250072  .00003312  00000+0  29044-3 0  9999
2 43803  97.6187 265.6580 0015384 156.7148 203.4775 14.97223819197701
UWE-4                   
1 43880U 18111E   22198.72192187  .00002365  00000+0  20353-3 0  9995
2 43880  97.6651 104.5062 0010899 216.0917 143.9570 14.98295537194231
NEXUS (FO-99)           
1 43937U 19003F   22198.82286240  .00013304  00000+0  43857-3 0  9993
2 43937  97.1281 230.9999 0021525  49.8848 310.4276 15.31340713194626
PSAT2 (NO-104)          
1 44354U 19036R   22198.69933897  .00045522 -59865-5  37889-3 0  9990
2 44354  28.5267 328.1403 0218946 312.7007  45.5344 15.42925032169355
JAISAT-1                
1 44419U 19038F   22198.63703912  .00008927  00000+0  44349-3 0  9998
2 44419  97.6375 169.0123 0020128  32.5688 327.6782 15.17729423167637
DUCHIFAT-3              
1 44854U 19089C   22199.50253279  .00003622  00000+0  28238-3 0  9996
2 44854  36.9673 276.2517 0007105 111.1877 248.9631 15.01257863142604
CAS-6 (TO-108)          
1 44881U 19093C   22199.57452197  .00000592  00000+0  81629-4 0  9995
2 44881  97.8927 278.3372 0016485  85.1720 275.1379 14.81760270139382
RS-44 & BREEZE-KM R/B   
1 44909U 19096E   22198.75983218  .00000008  00000+0 -61709-5 0  9992
2 44909  82.5198 210.1408 0216266 248.7776 109.0102 12.79713993119387
ORBITAL FACTORY 2 (OF-2)
1 45113U 19071C   22198.48924536  .00027290  00000+0  54127-3 0  9996
2 45113  51.6366 271.4403 0009632 289.8503  70.1446 15.46771664138022
HUSKYSAT-1 (HO-107)     
1 45119U 19071J   22198.90228679  .00021162  00000+0  43770-3 0  9998
2 45119  51.6368 269.6710 0009296 287.2264  72.7706 15.45707474138071
BY70-2                  
1 45857U 20042B   22199.59449504  .00006768  00000+0  89701-3 0  9994
2 45857  97.9549 276.1421 0010596  26.2653 333.9112 14.80151810110061
SALSAT                  
1 46495U 20068K   22198.82242693  .00001819  00000+0  13367-3 0  9993
2 46495  97.7307 140.1364 0016743 167.8875 192.2757 15.04622476 98754
BY70-3                  
1 46839U 20079N   22199.52004354  .00024075  00000+0  54401-3 0  9998
2 46839  97.1965 271.2262 0004947 200.8205 284.2723 15.43164387 95039
RADFXSAT-2 (AO-109)     
1 47311U 21002C   22198.68412675  .00007491  00000+0  30052-3 0  9995
2 47311  60.6836 248.4121 0022198   1.3990 358.7156 15.25687346 83084
UVSQ-SAT                
1 47438U 21006AB  22198.90973232  .00006724  00000+0  35288-3 0  9999
2 47438  97.4346 257.2970 0012472 162.0964 198.0711 15.15994673 81890
DIY-1 (ARDUIQUBE)       
1 47963U 21022AH  22198.68549807  .00018255  00000+0  99578-3 0  9996
2 47963  97.5289  99.7049 0017972  34.1625 326.0759 15.14278214 71528
XW-3 (CAS-9)            
1 50466U 21131B   22199.19439101  .00000157  00000+0  65837-4 0  9995
2 50466  98.5802 276.4334 0005612  67.5030 292.6751 14.38509363 29330
TEVEL-3                 
1 50988U 22002E   22199.14209689  .00006887  00000+0  37450-3 0  9998
2 50988  97.4797 265.6145 0008281 325.9748  64.3651 15.14762036 28067
TEVEL-8                 
1 50989U 22002F   22199.49649779  .00006910  00000+0  37626-3 0  9997
2 50989  97.4821 265.9853 0008352 323.7380 164.3597 15.14715089 28114
TEVEL-5                 
1 50998U 22002Q   22199.43562182  .00007245  00000+0  38829-3 0  9991
2 50998  97.4798 266.0119 0009647 318.2307 171.6556 15.15249990 28110
TEVEL-6                 
1 50999U 22002R   22199.15259176  .00007242  00000+0  38814-3 0  9998
2 50999  97.4799 265.7325 0009612 318.6441  70.6890 15.15250322 28077
TEVEL-1                 
1 51013U 22002AF  22199.49310259  .00006842  00000+0  37231-3 0  9990
2 51013  97.4798 265.9416 0008206 324.5359 163.9758 15.14742087 28116
TEVEL-7                 
1 51062U 22002CG  22199.49773691  .00006954  00000+0  37873-3 0  9993
2 51062  97.4819 265.9741 0008261 322.9557 163.7433 15.14705985 28112
TEVEL-4                 
1 51063U 22002CH  22199.49812394  .00006959  00000+0  37907-3 0  9991
2 51063  97.4818 265.9716 0008212 322.4637 162.9095 15.14697535 28110
TEVEL-2                 
1 51069U 22002CP  22199.14323512  .00006909  00000+0  37581-3 0  9991
2 51069  97.4800 265.6042 0008153 325.5531  64.7131 15.14754730 28062
